ONEWEB-0687             
1 61595U 24188B   25212.62826045 -.00000323  00000+0 -86515-3 0  9991
2 61595  87.9036  69.7153 0001255  98.0860 262.0414 13.17649479 41977
ONEWEB-0688             
1 61596U 24188C   25212.65694216 -.00000370  00000+0 -98620-3 0  9990
2 61596  87.9031  69.7100 0002040 123.6735 236.4591 13.17648956 43684
ONEWEB-0689             
1 61597U 24188D   25213.43099846 -.00000401  00000+0 -11677-2 0  9997
2 61597  87.8774  84.8015 0001393  79.8239 280.3046 13.11416115 40675
ONEWEB-0690             
1 61598U 24188E   25213.21227149 -.00000446  00000+0 -12948-2 0  9994
2 61598  87.8820  84.8080 0002486  76.6709 283.4696 13.11419726 40802
ONEWEB-0691             
1 61599U 24188F   25212.67311595 -.00000560  00000+0 -16159-2 0  9998
2 61599  87.8731  84.9065 0001813  93.3113 266.8222 13.11418205 42472
ONEWEB-0692             
1 61600U 24188G   25212.69347615  .00000012  00000+0 -32483-5 0  9997
2 61600  87.8804  84.9836 0001624  47.5916 312.5349 13.11419614 42467
ONEWEB-0693             
1 61601U 24188H   25212.66877587  .00000036  00000+0  60265-4 0  9994
2 61601  87.9035  69.7248 0002611  87.1368 273.0062 13.17648445 41904
ONEWEB-0695             
1 61602U 24188J   25213.20378858 -.00000391  00000+0 -11393-2 0  9995
2 61602  87.8803  84.8674 0001268  65.6859 294.4401 13.11418865 40774
